IRIDIUM 155             
1 43573U 18061E   20281.21855005  .00000090  00000-0  24968-4 0  9999
2 43573  86.4031 205.4992 0001824  69.5301 290.6090 14.34218446115376
IRIDIUM 154             
1 43574U 18061F   20281.26929700  .00000084  00000-0  22870-4 0  9992
2 43574  86.4035 205.5129 0002459  84.6436 275.5040 14.34217929115435
IRIDIUM 163             
1 43575U 18061G   20281.25027221  .00000089  00000-0  24554-4 0  9995
2 43575  86.4031 205.4993 0002090  99.3968 260.7464 14.34217008115405
IRIDIUM 156             
1 43576U 18061H   20281.22488585  .00000090  00000-0  25170-4 0  9994
2 43576  86.4032 205.5146 0001794  86.6707 273.4694 14.34216500115398
IRIDIUM 164             
1 43577U 18061J   20281.27564152  .00000091  00000-0  25581-4 0  9992
2 43577  86.4033 205.5023 0002321  87.1451 273.0011 14.34218717115440
IRIDIUM 159             
1 43578U 18061K   20281.24392933  .00000087  00000-0  24017-4 0  9994
2 43578  86.4031 205.4959 0002333  85.1664 274.9798 14.34217751115408
IRIDIUM 180             
1 43922U 19002A   20281.17365579  .00000077  00000-0  20409-4 0  9991
2 43922  86.3973 142.4600 0003032  98.3414 261.8126 14.34218207 91044
IRIDIUM 176             
1 43923U 19002B   20281.16277401  .00000140  00000-0  18270-4 0  9991
2 43923  86.6109 142.4950 0002446  87.9886 272.1611 14.72255783 93365
IRIDIUM 168             
1 43924U 19002C   20281.16730730  .00000072  00000-0  18530-4 0  9994
2 43924  86.3976 142.4811 0002369  87.0853 273.0614 14.34218171 90986
IRIDIUM 173             
1 43925U 19002D   20281.36392302  .00000071  00000-0  18133-4 0  9994
2 43925  86.3971 142.3723 0002250  88.2039 271.9415 14.34216948 91001
IRIDIUM 169             
1 43926U 19002E   20281.23026811  .00000109  00000-0  28961-4 0  9992
2 43926  86.4287 173.9843 0005255   7.6365 352.4913 14.38610854 91333
IRIDIUM 172             
1 43927U 19002F   20281.35758204  .00000074  00000-0  19458-4 0  9996
2 43927  86.3972 142.3764 0002344  89.4872 270.6593 14.34218713 91006
IRIDIUM 175             
1 43928U 19002G   20281.22455237  .00000143  00000-0  18774-4 0  9990
2 43928  86.6093 142.3390 0001659 100.8811 259.2593 14.72255887 93367
IRIDIUM 171             
1 43929U 19002H   20281.19901628  .00000075  00000-0  19709-4 0  9990
2 43929  86.3982 142.5181 0002356  86.5400 273.6065 14.34218288 90971
IRIDIUM 170             
1 43930U 19002J   20281.16891001  .00000131  00000-0  16895-4 0  9998
2 43930  86.6109 142.4992 0002324  95.1196 265.0286 14.72249297 93372
IRIDIUM 167             
1 43931U 19002K   20281.33221338  .00000076  00000-0  19941-4 0  9991
2 43931  86.3973 142.3912 0002911  94.7506 265.4022 14.34218633 90997
